STARLINK-36826          
1 67885U 26035G   26062.58336806 -.00864260  25249-3 -16280-2 0  9997
2 67885  97.2777 354.4416 0001136  85.5217  14.0731 16.00854942  2772
STARLINK-36390          
1 67886U 26035H   26062.58336806 -.00879501  26119-3 -16452-2 0  9990
2 67886  97.2774 354.4431 0001201  94.7543   8.6027 16.00978370  2829
STARLINK-36368          
1 67887U 26035J   26062.58336806 -.00909364  27828-3 -16897-2 0  9993
2 67887  97.2772 354.4446 0001292 106.2695   0.6544 16.01099817  2772
STARLINK-36801          
1 67888U 26035K   26062.58336806 -.00961273  30893-3 -17733-2 0  9997
2 67888  97.2770 354.4460 0001240  74.0150  36.3277 16.01232787  2772
STARLINK-36372          
1 67889U 26035L   26062.58336806 -.01019723  34550-3 -18585-2 0  9993
2 67889  97.2766 354.4486 0001266  76.2123  40.6975 16.01451415  2772
STARLINK-36363          
1 67890U 26035M   26062.58336806 -.01003265  33489-3 -18379-2 0  9990
2 67890  97.2770 354.4477 0001312  98.2889  15.9482 16.01360578  2771
STARLINK-36816          
1 67891U 26035N   26062.58336806 -.01046168  36820-3 -17578-2 0  9992
2 67891  97.2747 354.4682 0001211  93.6864  72.8164 16.02855162  2660
STARLINK-36813          
1 67892U 26035P   26062.58336806 -.01042896  36328-3 -18207-2 0  9990
2 67892  97.2747 354.4590 0001374 106.1734  38.2508 16.02198218  2777
STARLINK-36803          
1 67893U 26035Q   26062.58336806 -.01033313  35453-3 -18715-2 0  9997
2 67893  97.2765 354.4504 0001182  79.4074  41.6774 16.01562898  2770
STARLINK-36846          
1 67894U 26035R   26062.58336806 -.01042309  36118-3 -18638-2 0  9996
2 67894  97.2762 354.4539 0001303  97.9758  31.6036 16.01785244  2777
STARLINK-36866          
1 67895U 26035S   26062.58336806 -.01045244  36350-3 -18580-2 0  9992
2 67895  97.2760 354.4554 0001201  88.8027  44.4623 16.01888267  2771
STARLINK-36877          
1 67896U 26035T   26062.58336806 -.01039759  35910-3 -18709-2 0  9991
2 67896  97.2761 354.4520 0001199  73.1923  52.3197 16.01676953  2775
STARLINK-36870          
1 67897U 26035U   26062.58336806 -.01047048  36513-3 -18492-2 0  9991
2 67897  97.2757 354.4569 0001237  79.6170  57.8697 16.01999928  2777
STARLINK-36810          
1 67898U 26035V   26062.58336806 -.01035164  35786-3 -18187-2 0  9990
2 67898  97.2756 354.4581 0001413 104.7313  36.1055 16.02088062  2773
STARLINK-36878          
1 67899U 26035W   26062.58336806 -.01044909  36500-3 -18140-2 0  9992
2 67899  97.2753 354.4611 0001203  81.2545  66.2000 16.02295648  2772
STARLINK-36361          
1 67900U 26035X   26062.58336806 -.01034176  35850-3 -17849-2 0  9992
2 67900  97.2753 354.4625 0001164  79.3531  71.7281 16.02394845  2770
